[{"OBJECT_NAME":"STARLINK-36066","OBJECT_ID":"2025-270E","EPOCH":"2026-03-09T22:53:39.207264","MEAN_MOTION":15.27618932,"ECCENTRICITY":0.00014596,"INCLINATION":42.9982,"RA_OF_ASC_NODE":54.9138,"ARG_OF_PERICENTER":216.5713,"MEAN_ANOMALY":143.504,"EPHEMERIS_TYPE":0,"CLASSIFICATION_TYPE":"U","NORAD_CAT_ID":66592,"ELEMENT_SET_NO":999,"REV_AT_EPOCH":1764,"BSTAR":0.00094099515,"MEAN_MOTION_DOT":0.00025753,"MEAN_MOTION_DDOT":0},{"OBJECT_NAME":"CZ-2C R\/B","OBJECT_ID":"2024-218A","EPOCH":"2026-03-09T22:16:31.791072","MEAN_MOTION":15.22960743,"ECCENTRICITY":0.00453409,"INCLINATION":97.5416,"RA_OF_ASC_NODE":83.973,"ARG_OF_PERICENTER":359.5317,"MEAN_ANOMALY":0.5869,"EPHEMERIS_TYPE":0,"CLASSIFICATION_TYPE":"U","NORAD_CAT_ID":62078,"ELEMENT_SET_NO":999,"REV_AT_EPOCH":7134,"BSTAR":0.00039378379,"MEAN_MOTION_DOT":9.445e-5,"MEAN_MOTION_DDOT":0}]
